[Satellite]
VERSION=1.1
NAME=TianYi 2
NICKNAME=TianYi 2
TLE1=1 43155U 18008A   19311.70853331  .00000359  00000-0  25046-4 0  9998
TLE2=2 43155  97.4739  21.1782 0017289 190.5467 268.6702 15.11314634 99276
STATUS=0
